{
"type": "FeatureCollection",
"name": "layer_traffic_controllers",
"crs": { "type": "name", "properties": { "name": "urn:ogc:def:crs:OGC:1.3:CRS84" } },
"xy_coordinate_resolution": 1e-06,
"features": [
{ "type": "Feature", "properties": { "device_db": 1, "device_type": 50, "device_id": 1, "code": "BA028", "name": "Via Napoli - Via Renato Scionti", "n_detectors": 3, "vehicles_day": 3793.0, "detectors_with_data": 3.0, "suspicious_total": false, "has_data": true }, "geometry": { "type": "Point", "coordinates": [ 16.827042, 41.131546 ] } },
{ "type": "Feature", "properties": { "device_db": 2, "device_type": 50, "device_id": 1, "code": "BA023-CAM-SMT", "name": "CACUDI - EUROPA", "n_detectors": 9, "vehicles_day": 23952.0, "detectors_with_data": 9.0, "suspicious_total": false, "has_data": true }, "geometry": { "type": "Point", "coordinates": [ 16.79577, 41.12954 ] } },
{ "type": "Feature", "properties": { "device_db": 1, "device_type": 50, "device_id": 2, "code": "BA035", "name": "Via Napoli - Via Vincenzo Bellini", "n_detectors": 2, "vehicles_day": 1684.0, "detectors_with_data": 2.0, "suspicious_total": false, "has_data": true }, "geometry": { "type": "Point", "coordinates": [ 16.833921, 41.1294 ] } },
{ "type": "Feature", "properties": { "device_db": 2, "device_type": 50, "device_id": 2, "code": "BA026-CAM-SMT", "name": "NAPOLI - COSTA", "n_detectors": 8, "vehicles_day": 47184.0, "detectors_with_data": 8.0, "suspicious_total": false, "has_data": true }, "geometry": { "type": "Point", "coordinates": [ 16.818506, 41.134182 ] } },
{ "type": "Feature", "properties": { "device_db": 4, "device_type": 50, "device_id": 2, "code": "AF002", "name": "Vie Regina - Pagano - Dante BA 62", "n_detectors": 8, "vehicles_day": 14673.0, "detectors_with_data": 8.0, "suspicious_total": false, "has_data": true }, "geometry": { "type": "Point", "coordinates": [ 16.852064, 41.120987 ] } },
{ "type": "Feature", "properties": { "device_db": 6, "device_type": 50, "device_id": 2, "code": "BG021", "name": "Largo Due Giugno BA 22", "n_detectors": 10, "vehicles_day": null, "detectors_with_data": null, "suspicious_total": false, "has_data": false }, "geometry": { "type": "Point", "coordinates": [ 16.874146, 41.1071 ] } },
{ "type": "Feature", "properties": { "device_db": 1, "device_type": 50, "device_id": 3, "code": "BA036", "name": "Via Napoli (Caserma Briscese)", "n_detectors": 2, "vehicles_day": 506.0, "detectors_with_data": 2.0, "suspicious_total": false, "has_data": true }, "geometry": { "type": "Point", "coordinates": [ 16.836405, 41.12862 ] } },
{ "type": "Feature", "properties": { "device_db": 2, "device_type": 50, "device_id": 3, "code": "BA034-CAM", "name": "EX BG034 - EUROPA - TESORO", "n_detectors": 12, "vehicles_day": 42299.0, "detectors_with_data": 12.0, "suspicious_total": false, "has_data": true }, "geometry": { "type": "Point", "coordinates": [ 16.813957, 41.123947 ] } },
{ "type": "Feature", "properties": { "device_db": 6, "device_type": 50, "device_id": 3, "code": "BG022", "name": "Vie Giovanni XXIII - O.Flacco BA 32", "n_detectors": 6, "vehicles_day": 3953.0, "detectors_with_data": 3.0, "suspicious_total": false, "has_data": true }, "geometry": { "type": "Point", "coordinates": [ 16.860048, 41.107323 ] } },
{ "type": "Feature", "properties": { "device_db": 2, "device_type": 50, "device_id": 4, "code": "BA078-CAM-SMT", "name": "REGIONI - SICILIA", "n_detectors": 8, "vehicles_day": 44698.0, "detectors_with_data": 6.0, "suspicious_total": false, "has_data": true }, "geometry": { "type": "Point", "coordinates": [ 16.802229, 41.12294 ] } },
{ "type": "Feature", "properties": { "device_db": 2, "device_type": 50, "device_id": 5, "code": "BA081-CAM", "name": "EX BG019 - B.BUOZZI - ZIPPITELLI", "n_detectors": 9, "vehicles_day": 43064.0, "detectors_with_data": 9.0, "suspicious_total": false, "has_data": true }, "geometry": { "type": "Point", "coordinates": [ 16.8229, 41.108093 ] } },
{ "type": "Feature", "properties": { "device_db": 6, "device_type": 50, "device_id": 5, "code": "BG024", "name": "Vie Veneto - Orlando BA 238", "n_detectors": 2, "vehicles_day": 2481.0, "detectors_with_data": 1.0, "suspicious_total": false, "has_data": true }, "geometry": { "type": "Point", "coordinates": [ 16.844372, 41.134087 ] } },
{ "type": "Feature", "properties": { "device_db": 2, "device_type": 50, "device_id": 6, "code": "BA088-CAM", "name": "EX CG002 - BITRITTO - TORRE TRESCA", "n_detectors": 7, "vehicles_day": 27591.0, "detectors_with_data": 7.0, "suspicious_total": false, "has_data": true }, "geometry": { "type": "Point", "coordinates": [ 16.848951, 41.10204 ] } },
{ "type": "Feature", "properties": { "device_db": 5, "device_type": 50, "device_id": 6, "code": "AG044", "name": "Piazza IV Novembre BA 1", "n_detectors": 13, "vehicles_day": 6487.0, "detectors_with_data": 3.0, "suspicious_total": false, "has_data": true }, "geometry": { "type": "Point", "coordinates": [ 16.87241, 41.125923 ] } },
{ "type": "Feature", "properties": { "device_db": 6, "device_type": 50, "device_id": 6, "code": "BG025", "name": "Vie Bitritto - M.Partipilo BA X05", "n_detectors": 3, "vehicles_day": null, "detectors_with_data": null, "suspicious_total": false, "has_data": false }, "geometry": { "type": "Point", "coordinates": [ 16.846088, 41.100086 ] } },
{ "type": "Feature", "properties": { "device_db": 7, "device_type": 50, "device_id": 6, "code": "ID01-CAM", "name": "Via Giovine - Strada vicinale Lamberti", "n_detectors": 4, "vehicles_day": 15163.0, "detectors_with_data": 4.0, "suspicious_total": false, "has_data": true }, "geometry": { "type": "Point", "coordinates": [ 16.94764, 41.101727 ] } },
{ "type": "Feature", "properties": { "device_db": 2, "device_type": 50, "device_id": 7, "code": "BA274-CAM-SMT", "name": "VIA I. TRAIANO-VIA S. GIORGIO-VIA EUSTACHIO", "n_detectors": 11, "vehicles_day": 31914.0, "detectors_with_data": 11.0, "suspicious_total": false, "has_data": true }, "geometry": { "type": "Point", "coordinates": [ 16.956512, 41.096073 ] } },
{ "type": "Feature", "properties": { "device_db": 6, "device_type": 50, "device_id": 7, "code": "BG026", "name": "Vie Europa - Civ 75(G.d.F. ) BA 259", "n_detectors": 2, "vehicles_day": 1279.0, "detectors_with_data": 2.0, "suspicious_total": false, "has_data": true }, "geometry": { "type": "Point", "coordinates": [ 16.788755, 41.13397 ] } },
{ "type": "Feature", "properties": { "device_db": 7, "device_type": 50, "device_id": 7, "code": "ID02-CAM", "name": "Lungomare Trieste - Dipartimento INAIL - Via Caduti 28 Luglio 1943", "n_detectors": 4, "vehicles_day": 23566.0, "detectors_with_data": 4.0, "suspicious_total": false, "has_data": true }, "geometry": { "type": "Point", "coordinates": [ 16.893698, 41.11717 ] } },
{ "type": "Feature", "properties": { "device_db": 2, "device_type": 50, "device_id": 8, "code": "BA094-CAM-SMT", "name": "PASTEUR - CHIECO", "n_detectors": 6, "vehicles_day": 31246.0, "detectors_with_data": 6.0, "suspicious_total": false, "has_data": true }, "geometry": { "type": "Point", "coordinates": [ 16.853151, 41.11169 ] } },
{ "type": "Feature", "properties": { "device_db": 7, "device_type": 50, "device_id": 8, "code": "ID03-CAM", "name": "Piazza Diaz", "n_detectors": 4, "vehicles_day": 34744.0, "detectors_with_data": 4.0, "suspicious_total": false, "has_data": true }, "geometry": { "type": "Point", "coordinates": [ 16.878456, 41.122704 ] } },
{ "type": "Feature", "properties": { "device_db": 2, "device_type": 50, "device_id": 9, "code": "BA006-CAM-SMT", "name": "NAPOLI - UMBERTO", "n_detectors": 8, "vehicles_day": 26757.0, "detectors_with_data": 8.0, "suspicious_total": false, "has_data": true }, "geometry": { "type": "Point", "coordinates": [ 16.751036, 41.16211 ] } },
{ "type": "Feature", "properties": { "device_db": 4, "device_type": 50, "device_id": 9, "code": "AF009", "name": "Vie Dante - Manzoni BA X02", "n_detectors": 1, "vehicles_day": null, "detectors_with_data": null, "suspicious_total": false, "has_data": false }, "geometry": { "type": "Point", "coordinates": [ 16.861202, 41.121517 ] } },
{ "type": "Feature", "properties": { "device_db": 6, "device_type": 50, "device_id": 9, "code": "BG028", "name": "Vie Petroni - Compr. S. Rita BA 155", "n_detectors": 4, "vehicles_day": null, "detectors_with_data": null, "suspicious_total": false, "has_data": false }, "geometry": { "type": "Point", "coordinates": [ 16.865316, 41.0879 ] } },
{ "type": "Feature", "properties": { "device_db": 7, "device_type": 50, "device_id": 9, "code": "ID04-CAM", "name": "Lungomare Augusto - Largo Papa Urbano", "n_detectors": 8, "vehicles_day": 10878.0, "detectors_with_data": 4.0, "suspicious_total": false, "has_data": true }, "geometry": { "type": "Point", "coordinates": [ 16.871222, 41.13057 ] } },
{ "type": "Feature", "properties": { "device_db": 2, "device_type": 50, "device_id": 10, "code": "BA167-CAM", "name": "EX BG021 - L.GO DUE GIUGNO", "n_detectors": 17, "vehicles_day": 2295.0, "detectors_with_data": 6.0, "suspicious_total": false, "has_data": true }, "geometry": { "type": "Point", "coordinates": [ 16.874146, 41.1071 ] } },
{ "type": "Feature", "properties": { "device_db": 7, "device_type": 50, "device_id": 10, "code": "ID05-CAM", "name": "Via Caldarola", "n_detectors": 6, "vehicles_day": 13350.0, "detectors_with_data": 6.0, "suspicious_total": false, "has_data": true }, "geometry": { "type": "Point", "coordinates": [ 16.904755, 41.10423 ] } },
{ "type": "Feature", "properties": { "device_db": 2, "device_type": 50, "device_id": 11, "code": "BA191-CAM-SMT", "name": "TRIESTE - BALESTRERO", "n_detectors": 5, "vehicles_day": 12382.0, "detectors_with_data": 5.0, "suspicious_total": false, "has_data": true }, "geometry": { "type": "Point", "coordinates": [ 16.904907, 41.115955 ] } },
{ "type": "Feature", "properties": { "device_db": 2, "device_type": 50, "device_id": 12, "code": "BA218-CAM-SMT", "name": "PEUCETIA - ARCHITA ARISTOSSENO", "n_detectors": 9, "vehicles_day": 19700.0, "detectors_with_data": 9.0, "suspicious_total": false, "has_data": true }, "geometry": { "type": "Point", "coordinates": [ 16.88746, 41.11512 ] } },
{ "type": "Feature", "properties": { "device_db": 5, "device_type": 50, "device_id": 12, "code": "AG051", "name": "Corso De Tullio - Piazza Federico II di Svevia (Genio Civile) BA 176", "n_detectors": 4, "vehicles_day": 4865.0, "detectors_with_data": 2.0, "suspicious_total": false, "has_data": true }, "geometry": { "type": "Point", "coordinates": [ 16.867147, 41.12943 ] } },
{ "type": "Feature", "properties": { "device_db": 2, "device_type": 50, "device_id": 13, "code": "BA212-CAM", "name": "EX BG020 - AMENDOLA - OMODEO", "n_detectors": 12, "vehicles_day": 93466.0, "detectors_with_data": 12.0, "suspicious_total": false, "has_data": true }, "geometry": { "type": "Point", "coordinates": [ 16.885315, 41.107494 ] } },
{ "type": "Feature", "properties": { "device_db": 5, "device_type": 50, "device_id": 13, "code": "AG052", "name": "Vie De Tullio - Dogana BA 75", "n_detectors": 2, "vehicles_day": 447.0, "detectors_with_data": 2.0, "suspicious_total": false, "has_data": true }, "geometry": { "type": "Point", "coordinates": [ 16.869135, 41.13269 ] } },
{ "type": "Feature", "properties": { "device_db": 6, "device_type": 50, "device_id": 13, "code": "BG032", "name": "Vie Lung.N.Sauro-G.Dom.Petroni BA15", "n_detectors": 4, "vehicles_day": null, "detectors_with_data": null, "suspicious_total": false, "has_data": false }, "geometry": { "type": "Point", "coordinates": [ 16.87972, 41.12225 ] } },
{ "type": "Feature", "properties": { "device_db": 7, "device_type": 50, "device_id": 13, "code": "ID08", "name": "SS16 - Sovrappasso Palese", "n_detectors": 2, "vehicles_day": 5809.0, "detectors_with_data": 2.0, "suspicious_total": false, "has_data": true }, "geometry": { "type": "Point", "coordinates": [ 16.770506, 41.150185 ] } },
{ "type": "Feature", "properties": { "device_db": 2, "device_type": 50, "device_id": 14, "code": "BA227-CAM", "name": "CALDAROLA - TOSCANINI", "n_detectors": 11, "vehicles_day": 24906.0, "detectors_with_data": 10.0, "suspicious_total": false, "has_data": true }, "geometry": { "type": "Point", "coordinates": [ 16.91082, 41.10188 ] } },
{ "type": "Feature", "properties": { "device_db": 2, "device_type": 50, "device_id": 15, "code": "BA229-CAM-SMT", "name": "GENTILE - QUASIMODO", "n_detectors": 8, "vehicles_day": 30764.0, "detectors_with_data": 8.0, "suspicious_total": false, "has_data": true }, "geometry": { "type": "Point", "coordinates": [ 16.918768, 41.10518 ] } },
{ "type": "Feature", "properties": { "device_db": 7, "device_type": 50, "device_id": 15, "code": "ID10", "name": "Via Liuzzi - Via Damascelli - Via Livatino", "n_detectors": 3, "vehicles_day": 3605.0, "detectors_with_data": 3.0, "suspicious_total": false, "has_data": true }, "geometry": { "type": "Point", "coordinates": [ 16.86352, 41.081142 ] } },
{ "type": "Feature", "properties": { "device_db": 2, "device_type": 50, "device_id": 16, "code": "BA240-CAM-SMT", "name": "G.PETRONI - CALVARIO", "n_detectors": 8, "vehicles_day": 36341.0, "detectors_with_data": 8.0, "suspicious_total": false, "has_data": true }, "geometry": { "type": "Point", "coordinates": [ 16.865877, 41.0909 ] } },
{ "type": "Feature", "properties": { "device_db": 4, "device_type": 50, "device_id": 16, "code": "AF017", "name": "Vie Q.Sella - C.so V.Emanuele - Piccinni BA 50+51", "n_detectors": 6, "vehicles_day": null, "detectors_with_data": null, "suspicious_total": false, "has_data": false }, "geometry": { "type": "Point", "coordinates": [ 16.864004, 41.125362 ] } },
{ "type": "Feature", "properties": { "device_db": 5, "device_type": 50, "device_id": 16, "code": "AG055", "name": "Via Bellomo - Strada Massimi Losacco", "n_detectors": 6, "vehicles_day": 1719.0, "detectors_with_data": 4.0, "suspicious_total": false, "has_data": true }, "geometry": { "type": "Point", "coordinates": [ 16.85037, 41.10555 ] } },
{ "type": "Feature", "properties": { "device_db": 6, "device_type": 50, "device_id": 16, "code": "BG035", "name": "Vie Fanelli - Trav.185 BA 255", "n_detectors": 3, "vehicles_day": 3178.0, "detectors_with_data": 3.0, "suspicious_total": false, "has_data": true }, "geometry": { "type": "Point", "coordinates": [ 16.883764, 41.09037 ] } },
{ "type": "Feature", "properties": { "device_db": 3, "device_type": 50, "device_id": 17, "code": "BA248-CAM-SMT", "name": "T.LIUZZI - DI VENERE", "n_detectors": 8, "vehicles_day": 49104.0, "detectors_with_data": 8.0, "suspicious_total": false, "has_data": true }, "geometry": { "type": "Point", "coordinates": [ 16.861738, 41.07749 ] } },
{ "type": "Feature", "properties": { "device_db": 5, "device_type": 50, "device_id": 17, "code": "BF001", "name": "Vie De Laurentis - Kennedy BA 83", "n_detectors": 8, "vehicles_day": 19674.0, "detectors_with_data": 8.0, "suspicious_total": false, "has_data": true }, "geometry": { "type": "Point", "coordinates": [ 16.86471, 41.100994 ] } },
{ "type": "Feature", "properties": { "device_db": 6, "device_type": 50, "device_id": 17, "code": "BG036", "name": "Vie Europa - Maestri del Lavoro BA 130", "n_detectors": 7, "vehicles_day": 10883.0, "detectors_with_data": 4.0, "suspicious_total": false, "has_data": true }, "geometry": { "type": "Point", "coordinates": [ 16.806164, 41.123386 ] } },
{ "type": "Feature", "properties": { "device_db": 1, "device_type": 50, "device_id": 18, "code": "BA156", "name": "Viale Quinto Ennio - Via Foggia", "n_detectors": 1, "vehicles_day": 2076.0, "detectors_with_data": 1.0, "suspicious_total": false, "has_data": true }, "geometry": { "type": "Point", "coordinates": [ 16.861816, 41.11402 ] } },
{ "type": "Feature", "properties": { "device_db": 3, "device_type": 50, "device_id": 18, "code": "BA257-CAM-SMT", "name": "DE GASPERI - S.S.16 NORD", "n_detectors": 10, "vehicles_day": 35687.0, "detectors_with_data": 10.0, "suspicious_total": false, "has_data": true }, "geometry": { "type": "Point", "coordinates": [ 16.869835, 41.090546 ] } },
{ "type": "Feature", "properties": { "device_db": 1, "device_type": 50, "device_id": 19, "code": "BA158", "name": "Via Francesco Campione - Via Nicola De Gemmis", "n_detectors": 1, "vehicles_day": null, "detectors_with_data": null, "suspicious_total": false, "has_data": false }, "geometry": { "type": "Point", "coordinates": [ 16.865866, 41.112846 ] } },
{ "type": "Feature", "properties": { "device_db": 3, "device_type": 50, "device_id": 19, "code": "BA258-CAM-SMT", "name": "DE GASPERI - S.S.16 SUD", "n_detectors": 8, "vehicles_day": 37124.0, "detectors_with_data": 8.0, "suspicious_total": false, "has_data": true }, "geometry": { "type": "Point", "coordinates": [ 16.86955, 41.08896 ] } },
{ "type": "Feature", "properties": { "device_db": 3, "device_type": 50, "device_id": 20, "code": "BA268-CAM-SMT", "name": "FANELLI - VASSALLO", "n_detectors": 5, "vehicles_day": 21824.0, "detectors_with_data": 5.0, "suspicious_total": false, "has_data": true }, "geometry": { "type": "Point", "coordinates": [ 16.883566, 41.09213 ] } },
{ "type": "Feature", "properties": { "device_db": 3, "device_type": 50, "device_id": 21, "code": "BA270-CAM-SMT", "name": "S.P.80 VIA FANELLI - VIA GORIZIA", "n_detectors": 10, "vehicles_day": null, "detectors_with_data": null, "suspicious_total": false, "has_data": false }, "geometry": { "type": "Point", "coordinates": [ 16.882824, 41.06216 ] } },
{ "type": "Feature", "properties": { "device_db": 3, "device_type": 50, "device_id": 22, "code": "BA281-CAM-SMT", "name": "T.LIUZZI - MODUGNO", "n_detectors": 8, "vehicles_day": 8821.0, "detectors_with_data": 8.0, "suspicious_total": false, "has_data": true }, "geometry": { "type": "Point", "coordinates": [ 16.860909, 41.06426 ] } },
{ "type": "Feature", "properties": { "device_db": 5, "device_type": 50, "device_id": 22, "code": "BF006", "name": "Vie Einaudi - Pavoncelli BA 202", "n_detectors": 2, "vehicles_day": null, "detectors_with_data": null, "suspicious_total": false, "has_data": false }, "geometry": { "type": "Point", "coordinates": [ 16.878197, 41.101124 ] } },
{ "type": "Feature", "properties": { "device_db": 3, "device_type": 50, "device_id": 23, "code": "BA285-CAM-SMT", "name": "FANELLI - QUARANTA", "n_detectors": 14, "vehicles_day": 28833.0, "detectors_with_data": 14.0, "suspicious_total": false, "has_data": true }, "geometry": { "type": "Point", "coordinates": [ 16.884295, 41.068237 ] } },
{ "type": "Feature", "properties": { "device_db": 3, "device_type": 50, "device_id": 24, "code": "BA288-CAM-SMT", "name": "T.LIUZZI - LOSETO", "n_detectors": 14, "vehicles_day": 12541.0, "detectors_with_data": 14.0, "suspicious_total": false, "has_data": true }, "geometry": { "type": "Point", "coordinates": [ 16.849384, 41.041233 ] } },
{ "type": "Feature", "properties": { "device_db": 6, "device_type": 50, "device_id": 24, "code": "BG044", "name": "Vie Nazario Sauro - Addis Abeba - Pass. pedonale BA 252", "n_detectors": 5, "vehicles_day": 1043.0, "detectors_with_data": 5.0, "suspicious_total": false, "has_data": true }, "geometry": { "type": "Point", "coordinates": [ 16.882948, 41.12123 ] } },
{ "type": "Feature", "properties": { "device_db": 3, "device_type": 50, "device_id": 25, "code": "BA293-CAM", "name": "EX BG045 - AEREOPORTO D ANNUNZIO", "n_detectors": 7, "vehicles_day": 31204.0, "detectors_with_data": 7.0, "suspicious_total": false, "has_data": true }, "geometry": { "type": "Point", "coordinates": [ 16.778654, 41.14101 ] } },
{ "type": "Feature", "properties": { "device_db": 4, "device_type": 50, "device_id": 25, "code": "AF026", "name": "Vie De Rossi - Crisanzio BA 39", "n_detectors": 2, "vehicles_day": null, "detectors_with_data": null, "suspicious_total": false, "has_data": false }, "geometry": { "type": "Point", "coordinates": [ 16.865742, 41.119644 ] } },
{ "type": "Feature", "properties": { "device_db": 3, "device_type": 50, "device_id": 26, "code": "BA135-CAM", "name": "EX BG037 - MADRE TERESA CALCUTTA - ROSALBA", "n_detectors": 11, "vehicles_day": 53310.0, "detectors_with_data": 11.0, "suspicious_total": false, "has_data": true }, "geometry": { "type": "Point", "coordinates": [ 16.856218, 41.099403 ] } },
{ "type": "Feature", "properties": { "device_db": 6, "device_type": 50, "device_id": 26, "code": "CG001", "name": "Via Nazario Sauro - Caserma Bergia", "n_detectors": 7, "vehicles_day": 26547.0, "detectors_with_data": 9.0, "suspicious_total": false, "has_data": true }, "geometry": { "type": "Point", "coordinates": [ 16.885868, 41.120327 ] } },
{ "type": "Feature", "properties": { "device_db": 1, "device_type": 50, "device_id": 27, "code": "BA197", "name": "Via Maria Cristina di Savoia - Via dei Mille 2", "n_detectors": 1, "vehicles_day": null, "detectors_with_data": null, "suspicious_total": false, "has_data": false }, "geometry": { "type": "Point", "coordinates": [ 16.878351, 41.11441 ] } },
{ "type": "Feature", "properties": { "device_db": 3, "device_type": 50, "device_id": 27, "code": "BA122-CAM", "name": "EX BG030 - FANELLI - GIUSSO", "n_detectors": 8, "vehicles_day": 34373.0, "detectors_with_data": 8.0, "suspicious_total": false, "has_data": true }, "geometry": { "type": "Point", "coordinates": [ 16.883333, 41.09375 ] } },
{ "type": "Feature", "properties": { "device_db": 6, "device_type": 50, "device_id": 27, "code": "CG002", "name": "Via Bellomo - strada Torre Tresca - Santa Fara", "n_detectors": 1, "vehicles_day": null, "detectors_with_data": null, "suspicious_total": false, "has_data": false }, "geometry": { "type": "Point", "coordinates": [ 16.849009, 41.102066 ] } },
{ "type": "Feature", "properties": { "device_db": 1, "device_type": 50, "device_id": 28, "code": "BA211", "name": "Via A. Omodeo - Via G. Salvemini", "n_detectors": 3, "vehicles_day": null, "detectors_with_data": null, "suspicious_total": false, "has_data": false }, "geometry": { "type": "Point", "coordinates": [ 16.881804, 41.10597 ] } },
{ "type": "Feature", "properties": { "device_db": 3, "device_type": 50, "device_id": 28, "code": "BA019-CAM", "name": "EX BG015 - CAPRUZZI - UNITA  D ITALIA", "n_detectors": 11, "vehicles_day": 53542.0, "detectors_with_data": 11.0, "suspicious_total": false, "has_data": true }, "geometry": { "type": "Point", "coordinates": [ 16.872927, 41.117214 ] } },
{ "type": "Feature", "properties": { "device_db": 5, "device_type": 50, "device_id": 28, "code": "BF012", "name": "Vie De Laurentis - King BA 124", "n_detectors": 8, "vehicles_day": null, "detectors_with_data": null, "suspicious_total": false, "has_data": false }, "geometry": { "type": "Point", "coordinates": [ 16.864685, 41.100163 ] } },
{ "type": "Feature", "properties": { "device_db": 1, "device_type": 50, "device_id": 29, "code": "BA029", "name": "EX CG007 - Via Napoli - Viale Saverio Mercadante", "n_detectors": 2, "vehicles_day": 3043.0, "detectors_with_data": 2.0, "suspicious_total": false, "has_data": true }, "geometry": { "type": "Point", "coordinates": [ 16.831236, 41.13029 ] } },
{ "type": "Feature", "properties": { "device_db": 3, "device_type": 50, "device_id": 29, "code": "PA2-CAM-SMT", "name": "Ponte Adriatico lato Dedato dir. Centro", "n_detectors": 1, "vehicles_day": 4660.0, "detectors_with_data": 1.0, "suspicious_total": false, "has_data": true }, "geometry": { "type": "Point", "coordinates": [ 16.848566, 41.114716 ] } },
{ "type": "Feature", "properties": { "device_db": 1, "device_type": 50, "device_id": 30, "code": "BA040-CAM", "name": "Via Napoli - Via Ammiraglio Caracciolo", "n_detectors": 9, "vehicles_day": 55002.0, "detectors_with_data": 9.0, "suspicious_total": false, "has_data": true }, "geometry": { "type": "Point", "coordinates": [ 16.844254, 41.127518 ] } },
{ "type": "Feature", "properties": { "device_db": 3, "device_type": 50, "device_id": 30, "code": "PA1-CAM-SMT", "name": "Ponte Adriatico lato Cimitero dir. Esterno", "n_detectors": 2, "vehicles_day": 7094.0, "detectors_with_data": 2.0, "suspicious_total": false, "has_data": true }, "geometry": { "type": "Point", "coordinates": [ 16.847889, 41.123848 ] } },
{ "type": "Feature", "properties": { "device_db": 5, "device_type": 50, "device_id": 30, "code": "BG014", "name": "Vie Estramurale Capruzzi - Dei Mille BA 193", "n_detectors": 2, "vehicles_day": null, "detectors_with_data": null, "suspicious_total": false, "has_data": false }, "geometry": { "type": "Point", "coordinates": [ 16.87565, 41.1174 ] } },
{ "type": "Feature", "properties": { "device_db": 6, "device_type": 50, "device_id": 30, "code": "CG005", "name": "Viale Europa - via Sopramarzo - via S.Mucc", "n_detectors": 5, "vehicles_day": 7936.0, "detectors_with_data": 3.0, "suspicious_total": false, "has_data": true }, "geometry": { "type": "Point", "coordinates": [ 16.82558, 41.12443 ] } },
{ "type": "Feature", "properties": { "device_db": 1, "device_type": 50, "device_id": 31, "code": "BA041-CAM", "name": "Via Napoli - Via Tommaso Fiore", "n_detectors": 9, "vehicles_day": 47762.0, "detectors_with_data": 9.0, "suspicious_total": false, "has_data": true }, "geometry": { "type": "Point", "coordinates": [ 16.847689, 41.127327 ] } },
{ "type": "Feature", "properties": { "device_db": 3, "device_type": 50, "device_id": 31, "code": "BA289-CAM", "name": "EX BG025 - BELLOMO - PARTIPILO", "n_detectors": 6, "vehicles_day": 39298.0, "detectors_with_data": 6.0, "suspicious_total": false, "has_data": true }, "geometry": { "type": "Point", "coordinates": [ 16.846209, 41.10013 ] } },
{ "type": "Feature", "properties": { "device_db": 4, "device_type": 50, "device_id": 31, "code": "AG033", "name": "Vie Brigata Regina - Veneto BA 114", "n_detectors": 9, "vehicles_day": 17633.0, "detectors_with_data": 9.0, "suspicious_total": false, "has_data": true }, "geometry": { "type": "Point", "coordinates": [ 16.85181, 41.129128 ] } },
{ "type": "Feature", "properties": { "device_db": 1, "device_type": 50, "device_id": 32, "code": "BA043-CAM", "name": "Via Napoli - Via Giambattista Bonazzi", "n_detectors": 2, "vehicles_day": 11732.0, "detectors_with_data": 2.0, "suspicious_total": false, "has_data": true }, "geometry": { "type": "Point", "coordinates": [ 16.862799, 41.126705 ] } },
{ "type": "Feature", "properties": { "device_db": 3, "device_type": 50, "device_id": 32, "code": "BA148-CAM", "name": "EX BG018 - CAPRUZZI - SALANDRA", "n_detectors": 13, "vehicles_day": 46940.0, "detectors_with_data": 10.0, "suspicious_total": false, "has_data": true }, "geometry": { "type": "Point", "coordinates": [ 16.864832, 41.11673 ] } },
{ "type": "Feature", "properties": { "device_db": 1, "device_type": 50, "device_id": 33, "code": "BA046-CAM", "name": "Via Adriatico n. 13", "n_detectors": 6, "vehicles_day": 18542.0, "detectors_with_data": 6.0, "suspicious_total": false, "has_data": true }, "geometry": { "type": "Point", "coordinates": [ 16.84306, 41.136803 ] } },
{ "type": "Feature", "properties": { "device_db": 6, "device_type": 50, "device_id": 33, "code": "CG008", "name": "Via Perotti - Spiaggia Pane e Pomodoro", "n_detectors": 6, "vehicles_day": 18059.0, "detectors_with_data": 6.0, "suspicious_total": false, "has_data": true }, "geometry": { "type": "Point", "coordinates": [ 16.892527, 41.11747 ] } },
{ "type": "Feature", "properties": { "device_db": 1, "device_type": 50, "device_id": 34, "code": "BA048-CAM", "name": "EX CG009 - Corso Vittorio Veneto - Via Ammiraglio Caracciolo", "n_detectors": 13, "vehicles_day": 31570.0, "detectors_with_data": 10.0, "suspicious_total": false, "has_data": true }, "geometry": { "type": "Point", "coordinates": [ 16.845581, 41.13265 ] } },
{ "type": "Feature", "properties": { "device_db": 6, "device_type": 50, "device_id": 34, "code": "CG009", "name": "Via Veneto - Via Caracciolo", "n_detectors": 6, "vehicles_day": null, "detectors_with_data": null, "suspicious_total": false, "has_data": false }, "geometry": { "type": "Point", "coordinates": [ 16.845615, 41.13271 ] } },
{ "type": "Feature", "properties": { "device_db": 1, "device_type": 50, "device_id": 35, "code": "BA050-CAM", "name": "Corso Vittorio Veneto - Via Pietro Ravanas", "n_detectors": 6, "vehicles_day": 42648.0, "detectors_with_data": 6.0, "suspicious_total": false, "has_data": true }, "geometry": { "type": "Point", "coordinates": [ 16.858267, 41.128124 ] } },
{ "type": "Feature", "properties": { "device_db": 4, "device_type": 50, "device_id": 35, "code": "AG037", "name": "Vie De Giosa - Liberta BA 13", "n_detectors": 6, "vehicles_day": 23705.0, "detectors_with_data": 6.0, "suspicious_total": false, "has_data": true }, "geometry": { "type": "Point", "coordinates": [ 16.874004, 41.12012 ] } }
]
}
