{
"type": "FeatureCollection",
"name": "layer_air_stations",
"crs": { "type": "name", "properties": { "name": "urn:ogc:def:crs:OGC:1.3:CRS84" } },
"xy_coordinate_resolution": 1e-06,
"features": [
{ "type": "Feature", "properties": { "id_station": 17, "station": "Bari - Caldarola", "no2_ugm3": 22, "pm10_ugm3": 22, "pm25_ugm3": 11.0, "pollution_ratio": 1.1, "pollutants_measured": 3 }, "geometry": { "type": "Point", "coordinates": [ 16.888063, 41.11354 ] } },
{ "type": "Feature", "properties": { "id_station": 54, "station": "Bari - Cavour", "no2_ugm3": 26, "pm10_ugm3": 22, "pm25_ugm3": 11.0, "pollution_ratio": 1.166667, "pollutants_measured": 3 }, "geometry": { "type": "Point", "coordinates": [ 16.872553, 41.12227 ] } },
{ "type": "Feature", "properties": { "id_station": 55, "station": "Bari - Kennedy", "no2_ugm3": 21, "pm10_ugm3": 20, "pm25_ugm3": 11.0, "pollution_ratio": 1.05, "pollutants_measured": 3 }, "geometry": { "type": "Point", "coordinates": [ 16.858906, 41.099594 ] } },
{ "type": "Feature", "properties": { "id_station": 81, "station": "Bari - Carbonara", "no2_ugm3": 15, "pm10_ugm3": 19, "pm25_ugm3": null, "pollution_ratio": 0.85, "pollutants_measured": 2 }, "geometry": { "type": "Point", "coordinates": [ 16.866943, 41.076668 ] } },
{ "type": "Feature", "properties": { "id_station": 90, "station": "Bari - CUS", "no2_ugm3": 17, "pm10_ugm3": 21, "pm25_ugm3": null, "pollution_ratio": 0.95, "pollutants_measured": 2 }, "geometry": { "type": "Point", "coordinates": [ 16.845278, 41.134724 ] } }
]
}
