{
"type": "FeatureCollection",
"name": "layer_industry",
"crs": { "type": "name", "properties": { "name": "urn:ogc:def:crs:OGC:1.3:CRS84" } },
"xy_coordinate_resolution": 1e-06,
"features": [
{ "type": "Feature", "properties": { "facility_id": "IT.CAED/700261001.FACILITY", "name": "CENTRALE A CICLO COMBINATO DI MODUGNO", "city": "MODUGNO", "last_reporting_year": 2024, "nox_kg": 107415.9, "pm10_kg": null, "recent": true }, "geometry": { "type": "Point", "coordinates": [ 16.7564, 41.1024 ] } },
{ "type": "Feature", "properties": { "facility_id": "IT.CAED/701232001.FACILITY", "name": "O-I Manufacturing Italy spa - Stabilimento di Bari", "city": "Bari", "last_reporting_year": 2022, "nox_kg": 189760.0, "pm10_kg": null, "recent": true }, "geometry": { "type": "Point", "coordinates": [ 16.8178, 41.1025 ] } },
{ "type": "Feature", "properties": { "facility_id": "IT.EEA/2007000102.FACILITY", "name": "IMPIANTO TERMOELETTRICO DI BARI", "city": "BARI", "last_reporting_year": 2008, "nox_kg": 114000.0, "pm10_kg": null, "recent": false }, "geometry": { "type": "Point", "coordinates": [ 16.883333, 41.116667 ] } },
{ "type": "Feature", "properties": { "facility_id": "IT.EEA/2010000163.FACILITY", "name": "POWERFLOR BL3", "city": "MOLFETTA", "last_reporting_year": 2017, "nox_kg": 172000.0, "pm10_kg": null, "recent": false }, "geometry": { "type": "Point", "coordinates": [ 16.611391, 41.162063 ] } }
]
}
